HST                     
1 20580U 90037B   23330.23740885  .00009334  00000+0  47700-3 0  9991
2 20580  28.4695 268.4991 0002574 337.1776 170.4081 15.14972828646310
